{
  "norad_id": 54692,
  "name": "JILIN-1 GAOFEN 03D47",
  "history": [
    {
      "epoch": "2026-03-28T21:34:00.595200Z",
      "apogee_km": 475.1327225792156,
      "perigee_km": 463.60179930396134,
      "latitude_deg": 4.850047822098695e-05,
      "longitude_deg": 104.49055924792262,
      "height_km": 468.8618552716464,
      "semi_major_axis_km": 6847.504260941589,
      "eccentricity": 0.00084198,
      "inclination_deg": 97.6855,
      "raan_deg": 254.3055,
      "arg_perigee_deg": 51.4821,
      "mean_anomaly_deg": 308.7174,
      "mean_motion_rev_day": 15.32160618
    },
    {
      "epoch": "2026-03-29T05:24:14.015808Z",
      "apogee_km": 475.08699256057025,
      "perigee_km": 463.57229265436126,
      "latitude_deg": -6.251369451537828e-05,
      "longitude_deg": -13.048301649215077,
      "height_km": 468.74982450122974,
      "semi_major_axis_km": 6847.4666426074655,
      "eccentricity": 0.0008408,
      "inclination_deg": 97.6854,
      "raan_deg": 254.6444,
      "arg_perigee_deg": 50.4606,
      "mean_anomaly_deg": 309.7376,
      "mean_motion_rev_day": 15.32173244
    },
    {
      "epoch": "2026-03-30T04:54:53.181216Z",
      "apogee_km": 474.9621767619492,
      "perigee_km": 463.5215761351792,
      "latitude_deg": 1.265865315647448e-05,
      "longitude_deg": -5.660457809317919,
      "height_km": 468.4345021362231,
      "semi_major_axis_km": 6847.378876448564,
      "eccentricity": 0.0008354,
      "inclination_deg": 97.6854,
      "raan_deg": 255.661,
      "arg_perigee_deg": 47.105,
      "mean_anomaly_deg": 313.0891,
      "mean_motion_rev_day": 15.32202702
    },
    {
      "epoch": "2026-03-30T06:28:55.731936Z",
      "apogee_km": 474.95444390330977,
      "perigee_km": 463.51631918228577,
      "latitude_deg": -3.83778887403103e-05,
      "longitude_deg": -29.167648696979963,
      "height_km": 468.41394446827394,
      "semi_major_axis_km": 6847.3723815427975,
      "eccentricity": 0.00083522,
      "inclination_deg": 97.6854,
      "raan_deg": 255.7288,
      "arg_perigee_deg": 46.9,
      "mean_anomaly_deg": 313.2938,
      "mean_motion_rev_day": 15.32204882
    },
    {
      "epoch": "2026-03-30T12:45:05.824224Z",
      "apogee_km": 474.917871591967,
      "perigee_km": 463.49403849948703,
      "latitude_deg": 7.367034972552139e-05,
      "longitude_deg": -123.19609261891593,
      "height_km": 468.3190602774438,
      "semi_major_axis_km": 6847.342955045727,
      "eccentricity": 0.00083418,
      "inclination_deg": 97.6854,
      "raan_deg": 255.9999,
      "arg_perigee_deg": 45.9228,
      "mean_anomaly_deg": 314.2699,
      "mean_motion_rev_day": 15.32214759
    },
    {
      "epoch": "2026-03-30T22:09:20.757888Z",
      "apogee_km": 474.8591959432233,
      "perigee_km": 463.4800678900383,
      "latitude_deg": -7.387871998512267e-05,
      "longitude_deg": 95.7620893902966,
      "height_km": 468.20916122170337,
      "semi_major_axis_km": 6847.30663191663,
      "eccentricity": 0.00083092,
      "inclination_deg": 97.6855,
      "raan_deg": 256.4065,
      "arg_perigee_deg": 44.6545,
      "mean_anomaly_deg": 315.5363,
      "mean_motion_rev_day": 15.32226951
    },
    {
      "epoch": "2026-03-31T20:05:54.631968Z",
      "apogee_km": 474.7410573964871,
      "perigee_km": 463.44449770947995,
      "latitude_deg": -5.4643084187836625e-05,
      "longitude_deg": 126.66878964784182,
      "height_km": 467.95906558123585,
      "semi_major_axis_km": 6847.229777552983,
      "eccentricity": 0.0008249,
      "inclination_deg": 97.6856,
      "raan_deg": 257.3555,
      "arg_perigee_deg": 41.6369,
      "mean_anomaly_deg": 318.5498,
      "mean_motion_rev_day": 15.32252748
    },
    {
      "epoch": "2026-04-01T21:10:31.717920Z",
      "apogee_km": 474.610309262016,
      "perigee_km": 463.4070095341085,
      "latitude_deg": -5.955102189166836e-06,
      "longitude_deg": 110.56878513603691,
      "height_km": 467.685014385269,
      "semi_major_axis_km": 6847.145659398062,
      "eccentricity": 0.0008181,
      "inclination_deg": 97.6858,
      "raan_deg": 258.4399,
      "arg_perigee_deg": 38.0319,
      "mean_anomaly_deg": 322.1498,
      "mean_motion_rev_day": 15.32280984
    },
    {
      "epoch": "2026-04-02T20:41:04.679808Z",
      "apogee_km": 474.4538882865536,
      "perigee_km": 463.3466244492747,
      "latitude_deg": -1.4374858050377575e-05,
      "longitude_deg": 117.98255907984012,
      "height_km": 467.43856586795124,
      "semi_major_axis_km": 6847.037256367914,
      "eccentricity": 0.0008111,
      "inclination_deg": 97.6861,
      "raan_deg": 259.4565,
      "arg_perigee_deg": 34.9664,
      "mean_anomaly_deg": 325.2108,
      "mean_motion_rev_day": 15.32317373
    },
    {
      "epoch": "2026-04-02T22:15:06.789888Z",
      "apogee_km": 474.4393377875185,
      "perigee_km": 463.34222292334016,
      "latitude_deg": 8.58390828728584e-06,
      "longitude_deg": 94.47709925872513,
      "height_km": 467.42188094007906,
      "semi_major_axis_km": 6847.027780355429,
      "eccentricity": 0.00081036,
      "inclination_deg": 97.6861,
      "raan_deg": 259.5242,
      "arg_perigee_deg": 34.76,
      "mean_anomaly_deg": 325.4169,
      "mean_motion_rev_day": 15.32320554
    },
    {
      "epoch": "2026-04-03T20:11:35.488608Z",
      "apogee_km": 474.2856217353701,
      "perigee_km": 463.2853560647036,
      "latitude_deg": 4.584048231539241e-05,
      "longitude_deg": 125.40541886032241,
      "height_km": 467.19388488846545,
      "semi_major_axis_km": 6846.922488900036,
      "eccentricity": 0.0008033,
      "inclination_deg": 97.6865,
      "raan_deg": 260.4732,
      "arg_perigee_deg": 31.6528,
      "mean_anomaly_deg": 328.5195,
      "mean_motion_rev_day": 15.323559
    },
    {
      "epoch": "2026-04-04T07:09:49.115232Z",
      "apogee_km": 474.2080829133938,
      "perigee_km": 463.24762165785523,
      "latitude_deg": -3.69452432663639e-05,
      "longitude_deg": -39.12738837163348,
      "height_km": 467.0770717203287,
      "semi_major_axis_km": 6846.864852285625,
      "eccentricity": 0.0008004,
      "inclination_deg": 97.6867,
      "raan_deg": 260.9477,
      "arg_perigee_deg": 30.093,
      "mean_anomaly_deg": 330.0769,
      "mean_motion_rev_day": 15.32375249
    },
    {
      "epoch": "2026-04-05T14:30:26.111232Z",
      "apogee_km": 474.03755815129443,
      "perigee_km": 463.19339770665283,
      "latitude_deg": -4.870726279207853e-05,
      "longitude_deg": -149.2130748647349,
      "height_km": 466.8201621302875,
      "semi_major_axis_km": 6846.752477928973,
      "eccentricity": 0.00079192,
      "inclination_deg": 97.6871,
      "raan_deg": 262.3034,
      "arg_perigee_deg": 25.662,
      "mean_anomaly_deg": 334.5012,
      "mean_motion_rev_day": 15.32412975
    },
    {
      "epoch": "2026-04-05T20:46:33.200256Z",
      "apogee_km": 474.0052159607267,
      "perigee_km": 463.1846408210977,
      "latitude_deg": -4.7673599700934944e-05,
      "longitude_deg": 116.77104320269882,
      "height_km": 466.7734767360274,
      "semi_major_axis_km": 6846.731928390912,
      "eccentricity": 0.0007902,
      "inclination_deg": 97.6872,
      "raan_deg": 262.5745,
      "arg_perigee_deg": 24.7417,
      "mean_anomaly_deg": 335.4201,
      "mean_motion_rev_day": 15.32419874
    },
    {
      "epoch": "2026-04-06T06:10:43.633344Z",
      "apogee_km": 473.9496697457398,
      "perigee_km": 463.1819971336454,
      "latitude_deg": -2.552050748206622e-05,
      "longitude_deg": -24.251895152723293,
      "height_km": 466.72479018612876,
      "semi_major_axis_km": 6846.702833439692,
      "eccentricity": 0.00078634,
      "inclination_deg": 97.6873,
      "raan_deg": 262.9812,
      "arg_perigee_deg": 23.6001,
      "mean_anomaly_deg": 336.5599,
      "mean_motion_rev_day": 15.32429642
    },
    {
      "epoch": "2026-04-07T15:05:18.452256Z",
      "apogee_km": 473.79145917371534,
      "perigee_km": 463.15319759926933,
      "latitude_deg": -8.385155198615404e-05,
      "longitude_deg": -157.82472200854124,
      "height_km": 466.5315143553142,
      "semi_major_axis_km": 6846.609328386492,
      "eccentricity": 0.0007769,
      "inclination_deg": 97.6877,
      "raan_deg": 264.405,
      "arg_perigee_deg": 18.8275,
      "mean_anomaly_deg": 341.3251,
      "mean_motion_rev_day": 15.32461035
    },
    {
      "epoch": "2026-04-07T21:21:24.831072Z",
      "apogee_km": 473.7600897056982,
      "perigee_km": 463.15334671744495,
      "latitude_deg": 4.5629727180308854e-05,
      "longitude_deg": 108.1624458200037,
      "height_km": 466.50433659731175,
      "semi_major_axis_km": 6846.593718211571,
      "eccentricity": 0.0007746,
      "inclination_deg": 97.6878,
      "raan_deg": 264.6762,
      "arg_perigee_deg": 17.9125,
      "mean_anomaly_deg": 342.2388,
      "mean_motion_rev_day": 15.32466276
    },
    {
      "epoch": "2026-04-08T14:35:41.904096Z",
      "apogee_km": 473.68149782807996,
      "perigee_km": 463.1393210579672,
      "latitude_deg": 1.9442823609580653e-05,
      "longitude_deg": -150.37093308451742,
      "height_km": 466.42633475988606,
      "semi_major_axis_km": 6846.547409443024,
      "eccentricity": 0.00076989,
      "inclination_deg": 97.6878,
      "raan_deg": 265.4219,
      "arg_perigee_deg": 15.5323,
      "mean_anomaly_deg": 344.6153,
      "mean_motion_rev_day": 15.32481824
    },
    {
      "epoch": "2026-04-09T20:22:09.990336Z",
      "apogee_km": 473.53804871064676,
      "perigee_km": 463.128675172351,
      "latitude_deg": -8.721795239736422e-05,
      "longitude_deg": 123.07765758797926,
      "height_km": 466.3222707449134,
      "semi_major_axis_km": 6846.470361941499,
      "eccentricity": 0.0007602,
      "inclination_deg": 97.6879,
      "raan_deg": 266.7103,
      "arg_perigee_deg": 11.1374,
      "mean_anomaly_deg": 349.0033,
      "mean_motion_rev_day": 15.32507693
    }
  ]
}